[{"OBJECT_NAME":"STARLINK-34975","OBJECT_ID":"2025-176AC","EPOCH":"2026-03-05T13:16:17.487552","MEAN_MOTION":15.30126647,"ECCENTRICITY":0.00019663,"INCLINATION":53.1618,"RA_OF_ASC_NODE":172.184,"ARG_OF_PERICENTER":103.3046,"MEAN_ANOMALY":256.8175,"EPHEMERIS_TYPE":0,"CLASSIFICATION_TYPE":"U","NORAD_CAT_ID":65224,"ELEMENT_SET_NO":999,"REV_AT_EPOCH":3248,"BSTAR":0.0014795385,"MEAN_MOTION_DOT":0.00043619,"MEAN_MOTION_DDOT":0},{"OBJECT_NAME":"STARLINK-34257","OBJECT_ID":"2025-176AD","EPOCH":"2026-03-05T13:54:06.132096","MEAN_MOTION":15.30196186,"ECCENTRICITY":0.00016517,"INCLINATION":53.1591,"RA_OF_ASC_NODE":171.6373,"ARG_OF_PERICENTER":91.2552,"MEAN_ANOMALY":268.8638,"EPHEMERIS_TYPE":0,"CLASSIFICATION_TYPE":"U","NORAD_CAT_ID":65225,"ELEMENT_SET_NO":999,"REV_AT_EPOCH":3243,"BSTAR":0.0014716353,"MEAN_MOTION_DOT":0.00043477,"MEAN_MOTION_DDOT":0},{"OBJECT_NAME":"STARLINK-34922","OBJECT_ID":"2025-184A","EPOCH":"2026-03-05T13:47:38.177952","MEAN_MOTION":15.05661973,"ECCENTRICITY":7.867e-5,"INCLINATION":97.6023,"RA_OF_ASC_NODE":118.6309,"ARG_OF_PERICENTER":283.9124,"MEAN_ANOMALY":76.2016,"EPHEMERIS_TYPE":0,"CLASSIFICATION_TYPE":"U","NORAD_CAT_ID":65273,"ELEMENT_SET_NO":999,"REV_AT_EPOCH":3068,"BSTAR":0.00053606207,"MEAN_MOTION_DOT":7.685e-5,"MEAN_MOTION_DDOT":0},{"OBJECT_NAME":"STARLINK-34904","OBJECT_ID":"2025-184B","EPOCH":"2026-03-05T14:27:32.275296","MEAN_MOTION":15.05637953,"ECCENTRICITY":0.00011052,"INCLINATION":97.6024,"RA_OF_ASC_NODE":118.5972,"ARG_OF_PERICENTER":107.6047,"MEAN_ANOMALY":252.53,"EPHEMERIS_TYPE":0,"CLASSIFICATION_TYPE":"U","NORAD_CAT_ID":65274,"ELEMENT_SET_NO":999,"REV_AT_EPOCH":3068,"BSTAR":0.0010945803,"MEAN_MOTION_DOT":0.00015763,"MEAN_MOTION_DDOT":0},{"OBJECT_NAME":"STARLINK-34954","OBJECT_ID":"2025-184C","EPOCH":"2026-03-05T13:19:42.868992","MEAN_MOTION":15.0565674,"ECCENTRICITY":6.664e-5,"INCLINATION":97.6037,"RA_OF_ASC_NODE":118.505,"ARG_OF_PERICENTER":128.7464,"MEAN_ANOMALY":231.3822,"EPHEMERIS_TYPE":0,"CLASSIFICATION_TYPE":"U","NORAD_CAT_ID":65275,"ELEMENT_SET_NO":999,"REV_AT_EPOCH":3067,"BSTAR":0.00033307021,"MEAN_MOTION_DOT":4.749e-5,"MEAN_MOTION_DDOT":0},{"OBJECT_NAME":"STARLINK-34968","OBJECT_ID":"2025-184D","EPOCH":"2026-03-05T14:07:34.615776","MEAN_MOTION":15.05657514,"ECCENTRICITY":0.00010139,"INCLINATION":97.6023,"RA_OF_ASC_NODE":118.617,"ARG_OF_PERICENTER":86.916,"MEAN_ANOMALY":273.2182,"EPHEMERIS_TYPE":0,"CLASSIFICATION_TYPE":"U","NORAD_CAT_ID":65276,"ELEMENT_SET_NO":999,"REV_AT_EPOCH":3068,"BSTAR":0.0003506095,"MEAN_MOTION_DOT":5.003e-5,"MEAN_MOTION_DDOT":0},{"OBJECT_NAME":"STARLINK-34935","OBJECT_ID":"2025-184E","EPOCH":"2026-03-05T13:35:40.567200","MEAN_MOTION":15.05665378,"ECCENTRICITY":8.995e-5,"INCLINATION":97.6023,"RA_OF_ASC_NODE":118.6404,"ARG_OF_PERICENTER":342.6979,"MEAN_ANOMALY":17.4217,"EPHEMERIS_TYPE":0,"CLASSIFICATION_TYPE":"U","NORAD_CAT_ID":65277,"ELEMENT_SET_NO":999,"REV_AT_EPOCH":3068,"BSTAR":0.00054724439,"MEAN_MOTION_DOT":7.847e-5,"MEAN_MOTION_DDOT":0},{"OBJECT_NAME":"STARLINK-35000","OBJECT_ID":"2025-184F","EPOCH":"2026-03-05T14:39:28.204704","MEAN_MOTION":15.05656926,"ECCENTRICITY":0.0001362,"INCLINATION":97.6033,"RA_OF_ASC_NODE":118.587,"ARG_OF_PERICENTER":97.455,"MEAN_ANOMALY":262.6832,"EPHEMERIS_TYPE":0,"CLASSIFICATION_TYPE":"U","NORAD_CAT_ID":65278,"ELEMENT_SET_NO":999,"REV_AT_EPOCH":3068,"BSTAR":0.000377722,"MEAN_MOTION_DOT":5.395e-5,"MEAN_MOTION_DDOT":0},{"OBJECT_NAME":"STARLINK-35023","OBJECT_ID":"2025-184G","EPOCH":"2026-03-05T14:19:32.586816","MEAN_MOTION":15.05678441,"ECCENTRICITY":0.00010594,"INCLINATION":97.605,"RA_OF_ASC_NODE":118.607,"ARG_OF_PERICENTER":109.1222,"MEAN_ANOMALY":251.0119,"EPHEMERIS_TYPE":0,"CLASSIFICATION_TYPE":"U","NORAD_CAT_ID":65279,"ELEMENT_SET_NO":999,"REV_AT_EPOCH":3068,"BSTAR":0.00058944387,"MEAN_MOTION_DOT":8.461e-5,"MEAN_MOTION_DDOT":0},{"OBJECT_NAME":"STARLINK-35001","OBJECT_ID":"2025-184H","EPOCH":"2026-03-05T13:55:36.822720","MEAN_MOTION":15.05662788,"ECCENTRICITY":6.159e-5,"INCLINATION":97.602,"RA_OF_ASC_NODE":118.6263,"ARG_OF_PERICENTER":7.7157,"MEAN_ANOMALY":352.4079,"EPHEMERIS_TYPE":0,"CLASSIFICATION_TYPE":"U","NORAD_CAT_ID":65280,"ELEMENT_SET_NO":999,"REV_AT_EPOCH":3068,"BSTAR":0.00057590795,"MEAN_MOTION_DOT":8.261e-5,"MEAN_MOTION_DDOT":0},{"OBJECT_NAME":"STARLINK-35010","OBJECT_ID":"2025-184J","EPOCH":"2026-03-05T13:43:39.008928","MEAN_MOTION":15.0566175,"ECCENTRICITY":7.175e-5,"INCLINATION":97.6021,"RA_OF_ASC_NODE":118.6345,"ARG_OF_PERICENTER":321.5708,"MEAN_ANOMALY":38.5467,"EPHEMERIS_TYPE":0,"CLASSIFICATION_TYPE":"U","NORAD_CAT_ID":65281,"ELEMENT_SET_NO":999,"REV_AT_EPOCH":3068,"BSTAR":0.00053516487,"MEAN_MOTION_DOT":7.672e-5,"MEAN_MOTION_DDOT":0},{"OBJECT_NAME":"STARLINK-35021","OBJECT_ID":"2025-184K","EPOCH":"2026-03-05T10:16:19.385760","MEAN_MOTION":15.0566403,"ECCENTRICITY":4.451e-5,"INCLINATION":97.6026,"RA_OF_ASC_NODE":118.5212,"ARG_OF_PERICENTER":100.0294,"MEAN_ANOMALY":260.0983,"EPHEMERIS_TYPE":0,"CLASSIFICATION_TYPE":"U","NORAD_CAT_ID":65282,"ELEMENT_SET_NO":999,"REV_AT_EPOCH":3061,"BSTAR":0.00064400584,"MEAN_MOTION_DOT":9.247e-5,"MEAN_MOTION_DDOT":0},{"OBJECT_NAME":"STARLINK-35015","OBJECT_ID":"2025-184L","EPOCH":"2026-03-05T14:47:26.350944","MEAN_MOTION":15.05670431,"ECCENTRICITY":0.00013263,"INCLINATION":97.6069,"RA_OF_ASC_NODE":118.5847,"ARG_OF_PERICENTER":346.5786,"MEAN_ANOMALY":13.5405,"EPHEMERIS_TYPE":0,"CLASSIFICATION_TYPE":"U","NORAD_CAT_ID":65283,"ELEMENT_SET_NO":999,"REV_AT_EPOCH":3068,"BSTAR":0.00048547544,"MEAN_MOTION_DOT":6.955e-5,"MEAN_MOTION_DDOT":0},{"OBJECT_NAME":"STARLINK-35006","OBJECT_ID":"2025-184M","EPOCH":"2026-03-05T14:03:34.579296","MEAN_MOTION":15.0566703,"ECCENTRICITY":0.00011218,"INCLINATION":97.603,"RA_OF_ASC_NODE":118.6222,"ARG_OF_PERICENTER":121.9015,"MEAN_ANOMALY":238.2321,"EPHEMERIS_TYPE":0,"CLASSIFICATION_TYPE":"U","NORAD_CAT_ID":65284,"ELEMENT_SET_NO":999,"REV_AT_EPOCH":3068,"BSTAR":0.00047175807,"MEAN_MOTION_DOT":6.756e-5,"MEAN_MOTION_DDOT":0},{"OBJECT_NAME":"STARLINK-34995","OBJECT_ID":"2025-184N","EPOCH":"2026-03-05T14:23:31.467264","MEAN_MOTION":15.05655504,"ECCENTRICITY":0.00017103,"INCLINATION":97.6029,"RA_OF_ASC_NODE":118.6019,"ARG_OF_PERICENTER":89.6674,"MEAN_ANOMALY":270.4749,"EPHEMERIS_TYPE":0,"CLASSIFICATION_TYPE":"U","NORAD_CAT_ID":65285,"ELEMENT_SET_NO":999,"REV_AT_EPOCH":3068,"BSTAR":0.00026068934,"MEAN_MOTION_DOT":3.703e-5,"MEAN_MOTION_DDOT":0},{"OBJECT_NAME":"STARLINK-35048","OBJECT_ID":"2025-184P","EPOCH":"2026-03-05T14:11:34.699776","MEAN_MOTION":15.05666139,"ECCENTRICITY":0.00010559,"INCLINATION":97.6021,"RA_OF_ASC_NODE":118.6132,"ARG_OF_PERICENTER":106.774,"MEAN_ANOMALY":253.3603,"EPHEMERIS_TYPE":0,"CLASSIFICATION_TYPE":"U","NORAD_CAT_ID":65286,"ELEMENT_SET_NO":999,"REV_AT_EPOCH":3063,"BSTAR":0.00043253158,"MEAN_MOTION_DOT":6.188e-5,"MEAN_MOTION_DDOT":0}]
