STARLINK-34975          
1 65224U 25176AC  26064.55298018  .00043619  00000+0  14795-2 0  9996
2 65224  53.1618 172.1840 0001966 103.3046 256.8175 15.30126647 32483
STARLINK-34257          
1 65225U 25176AD  26064.57923764  .00043477  00000+0  14716-2 0  9997
2 65225  53.1591 171.6373 0001651  91.2552 268.8638 15.30196186 32434
STARLINK-34922          
1 65273U 25184A   26064.57474743  .00007685  00000+0  53606-3 0  9990
2 65273  97.6023 118.6309 0000786 283.9124  76.2016 15.05661973 30682
STARLINK-34904          
1 65274U 25184B   26064.60245689  .00015763  00000+0  10946-2 0  9995
2 65274  97.6024 118.5972 0001105 107.6047 252.5300 15.05637953 30687
STARLINK-34954          
1 65275U 25184C   26064.55535728  .00004749  00000+0  33307-3 0  9995
2 65275  97.6037 118.5050 0000666 128.7464 231.3822 15.05656740 30675
STARLINK-34968          
1 65276U 25184D   26064.58859509  .00005003  00000+0  35061-3 0  9998
2 65276  97.6023 118.6170 0001013  86.9160 273.2182 15.05657514 30685
STARLINK-34935          
1 65277U 25184E   26064.56644175  .00007847  00000+0  54724-3 0  9993
2 65277  97.6023 118.6404 0000899 342.6979  17.4217 15.05665378 30681
STARLINK-35000          
1 65278U 25184F   26064.61074311  .00005395  00000+0  37772-3 0  9999
2 65278  97.6033 118.5870 0001362  97.4550 262.6832 15.05656926 30681
STARLINK-35023          
1 65279U 25184G   26064.59690494  .00008461  00000+0  58944-3 0  9994
2 65279  97.6050 118.6070 0001059 109.1222 251.0119 15.05678441 30680
STARLINK-35001          
1 65280U 25184H   26064.58028730  .00008261  00000+0  57591-3 0  9998
2 65280  97.6020 118.6263 0000615   7.7157 352.4079 15.05662788 30688
STARLINK-35010          
1 65281U 25184J   26064.57197927  .00007672  00000+0  53516-3 0  9991
2 65281  97.6021 118.6345 0000717 321.5708  38.5467 15.05661750 30684
STARLINK-35021          
1 65282U 25184K   26064.42800215  .00009247  00000+0  64401-3 0  9992
2 65282  97.6026 118.5212 0000445 100.0294 260.0983 15.05664030 30612
STARLINK-35015          
1 65283U 25184L   26064.61627721  .00006955  00000+0  48548-3 0  9990
2 65283  97.6069 118.5847 0001326 346.5786  13.5405 15.05670431 30685
STARLINK-35006          
1 65284U 25184M   26064.58581689  .00006756  00000+0  47176-3 0  9994
2 65284  97.6030 118.6222 0001121 121.9015 238.2321 15.05667030 30689
STARLINK-34995          
1 65285U 25184N   26064.59966976  .00003703  00000+0  26069-3 0  9999
2 65285  97.6029 118.6019 0001710  89.6674 270.4749 15.05655504 30682
STARLINK-35048          
1 65286U 25184P   26064.59137384  .00006188  00000+0  43253-3 0  9997
2 65286  97.6021 118.6132 0001055 106.7740 253.3603 15.05666139 30638
